GLOBALSTAR M057 [-]     
1 25943U 99058A   23316.92212428 -.00000036  00000+0  51354-3 0  9999
2 25943  51.9973 200.5897 0001499 256.4263 103.6419 12.24778537 95588
GLOBALSTAR M059 [-]     
1 25944U 99058B   23316.86559777 -.00000063  00000+0  28733-3 0  9999
2 25944  52.0040 342.5058 0000200 266.3894 265.9523 11.99954464504131
GLOBALSTAR M056 [-]     
1 25945U 99058C   23316.86785249 -.00000020  00000+0  78469-3 0  9999
2 25945  51.9992 359.4200 0001220 113.9304  57.5698 12.04771215 92439
GLOBALSTAR M031 [-]     
1 25946U 99058D   23316.94812530 -.00000114  00000+0 -24041-3 0  9995
2 25946  51.9970 286.3566 0002032  69.1710 306.8058 12.15999239 93716
GLOBALSTAR M039 [-]     
1 25961U 99062A   23316.94111168 -.00000066  00000+0  21286-3 0  9999
2 25961  51.9846 242.0425 0003060 122.6171 237.4992 12.62274096106682
GLOBALSTAR M034 [-]     
1 25962U 99062B   23316.74514510 -.00000095  00000+0 -22384-3 0  9999
2 25962  51.9863  85.3578 0014067  25.6872 122.8457 11.79417212 69663
GLOBALSTAR M029 [-]     
1 25963U 99062C   23317.16220521 -.00000053  00000+0  40696-3 0  9992
2 25963  51.9800 230.2361 0003508  56.1240  92.3338 11.99870244 99305
GLOBALSTAR M061 [-]     
1 25964U 99062D   23316.62302230 -.00000029  00000+0  83572-3 0  9994
2 25964  51.9793 261.9957 0005984 317.4136 213.8048 11.76753642 52883
